{
    "links": {
        "self": "http://www.neowsapp.com/rest/v1/neo/3824063?api_key=iIulBulltgU6a56xZRHN4H3l9WmuAYTsLGpBGhQ2"
    },
    "id": "3824063",
    "neo_reference_id": "3824063",
    "name": "(2018 JF1)",
    "designation": "2018 JF1",
    "nasa_jpl_url": "http://ssd.jpl.nasa.gov/sbdb.cgi?sstr=3824063",
    "absolute_magnitude_h": 22.7,
    "estimated_diameter": {
        "kilometers": {
            "estimated_diameter_min": 0.0766575574,
            "estimated_diameter_max": 0.1714115092
        },
        "meters": {
            "estimated_diameter_min": 76.6575573531,
            "estimated_diameter_max": 171.4115092306
        },
        "miles": {
            "estimated_diameter_min": 0.0476327831,
            "estimated_diameter_max": 0.1065101409
        },
        "feet": {
            "estimated_diameter_min": 251.5011804664,
            "estimated_diameter_max": 562.3737359442
        }
    },
    "is_potentially_hazardous_asteroid": false,
    "close_approach_data": [
        {
            "close_approach_date": "2018-05-01",
            "close_approach_date_full": "2018-May-01 16:15",
            "epoch_date_close_approach": 1525191300000,
            "relative_velocity": {
                "kilometers_per_second": "24.2718248272",
                "kilometers_per_hour": "87378.5693780345",
                "miles_per_hour": "54293.6449560348"
            },
            "miss_distance": {
                "astronomical": "0.1229757732",
                "lunar": "47.8375757748",
                "kilometers": "18396913.732323084",
                "miles": "11431312.1162791992"
            },
            "orbiting_body": "Earth"
        }
    ],
    "orbital_data": {
        "orbit_id": "4",
        "orbit_determination_date": "2018-05-15 07:43:56",
        "first_observation_date": "2018-05-08",
        "last_observation_date": "2018-05-15",
        "data_arc_in_days": 7,
        "observations_used": 48,
        "orbit_uncertainty": "9",
        "minimum_orbit_intersection": ".0121666",
        "jupiter_tisserand_invariant": "3.997",
        "epoch_osculation": "2458248.5",
        "eccentricity": ".6726151046983598",
        "semi_major_axis": "1.640576183625861",
        "inclination": "6.78673356569561",
        "ascending_node_longitude": "203.5098816747949",
        "orbital_period": "767.5258843728457",
        "perihelion_distance": ".5370998621107168",
        "perihelion_argument": "272.6365862453083",
        "aphelion_distance": "2.744052505141005",
        "perihelion_time": "2458191.551912601975",
        "mean_anomaly": "26.7109056263827",
        "mean_motion": ".4690395559677576",
        "equinox": "J2000",
        "orbit_class": {
            "orbit_class_type": "APO",
            "orbit_class_description": "Near-Earth asteroid orbits which cross the Earth’s orbit similar to that of 1862 Apollo",
            "orbit_class_range": "a (semi-major axis) > 1.0 AU; q (perihelion) < 1.017 AU"
        }
    },
    "is_sentry_object": false
}